NORAD_CAT_ID,OBJECT_NAME,OBJECT_TYPE,EPOCH,MEAN_MOTION,ECCENTRICITY,INCLINATION,RA_OF_ASC_NODE,ARG_OF_PERICENTER,MEAN_ANOMALY,BSTAR,MEAN_MOTION_DOT,MEAN_MOTION_DDOT,TLE_LINE0,TLE_LINE1,TLE_LINE2,SEMIMAJOR_AXIS,PERIOD,APOGEE,PERIGEE,DECAYED
47762,STARLINK-2180,PAYLOAD,2021-11-04 20:14:26,15.06391434,0.0001909,53.0543,145.769,75.3236,284.7965,2.6001e-05,1.06e-06,0.0,0 STARLINK-2180,1 47762U 21017AS  21308.84336686  .00000106  00000-0  26001-4 0  9995,2 47762  53.0543 145.7690 0001909  75.3236 284.7965 15.06391434 37866,6925.375,95.593,548.562,545.918,0.0
47762,STARLINK-2180,PAYLOAD,2021-11-05 12:09:50,15.06396259,0.0001906,53.0542,142.7901,76.6192,283.5009,6.02e-05,6.15e-06,0.0,0 STARLINK-2180,1 47762U 21017AS  21309.50683420  .00000615  00000-0  60200-4 0  9994,2 47762  53.0542 142.7901 0001906  76.6192 283.5009 15.06396259 38619,6925.36,95.592,548.545,545.905,0.0
47762,STARLINK-2180,PAYLOAD,2021-11-05 20:07:32,15.0639783,0.0001893,53.0544,141.3011,76.9776,283.1424,8.1449e-05,9.32e-06,0.0,0 STARLINK-2180,1 47762U 21017AS  21309.83856836  .00000932  00000-0  81449-4 0  9993,2 47762  53.0544 141.3011 0001893  76.9776 283.1424 15.06397830 38662,6925.355,95.592,548.531,545.909,0.0
47762,STARLINK-2180,PAYLOAD,2021-11-06 10:27:24,15.06391296,0.0001862,53.0542,138.6214,75.382,284.7375,9.5796e-05,1.145e-05,0.0,0 STARLINK-2180,1 47762U 21017AS  21310.43569510  .00001145  00000-0  95796-4 0  9998,2 47762  53.0542 138.6214 0001862  75.3820 284.7375 15.06391296 38104,6925.375,95.593,548.53,545.951,0.0
47762,STARLINK-2180,PAYLOAD,2021-11-06 12:02:56,15.06391358,0.0001872,53.0542,138.3235,75.7772,284.3425,7.6339e-05,8.55e-06,0.0,0 STARLINK-2180,1 47762U 21017AS  21310.50204228  .00000855  00000-0  76339-4 0  9997,2 47762  53.0542 138.3235 0001872  75.7772 284.3425 15.06391358 38768,6925.375,95.593,548.536,545.944,0.0
47762,STARLINK-2180,PAYLOAD,2021-11-06 18:25:06,15.06382406,0.0001833,53.0546,137.1311,79.755,280.3645,-5.7488e-05,-1.137e-05,0.0,0 STARLINK-2180,1 47762U 21017AS  21310.76743586 -.00001137  00000-0 -57488-4 0  9990,2 47762  53.0546 137.1311 0001833  79.7550 280.3645 15.06382406 38156,6925.401999999999,95.593,548.5369999999998,545.998,0.0
47762,STARLINK-2180,PAYLOAD,2021-11-07 13:31:35,15.06383459,0.0001834,53.0555,133.5578,76.2864,283.8329,1.9422e-05,8e-08,0.0,0 STARLINK-2180,1 47762U 21017AS  21311.56360789  .00000008  00000-0  19422-4 0  9999,2 47762  53.0555 133.5578 0001834  76.2864 283.8329 15.06383459 38923,6925.399,95.593,548.534,545.994,0.0
47762,STARLINK-2180,PAYLOAD,2021-11-07 21:29:17,15.06385701,0.0001837,53.0555,132.0687,76.2659,283.8535,-1.1127e-05,-4.47e-06,0.0,0 STARLINK-2180,1 47762U 21017AS  21311.89534335 -.00000447  00000-0 -11127-4 0  9998,2 47762  53.0555 132.0687 0001837  76.2659 283.8535 15.06385701 38979,6925.392,95.593,548.53,545.985,0.0
47762,STARLINK-2180,PAYLOAD,2021-11-08 13:24:41,15.0638069,0.0001816,53.0556,129.0904,75.7021,284.4170000000001,9.144e-05,1.0800000000000003e-05,0.0,0 STARLINK-2180,1 47762U 21017AS  21312.55881730  .00001080  00000-0  91440-4 0  9994,2 47762  53.0556 129.0904 0001816  75.7021 284.4170 15.06380690 39078,6925.408,95.593,548.53,546.015,0.0
47762,STARLINK-2180,PAYLOAD,2021-11-08 15:00:14,15.06380785,0.0001819,53.0556,128.7925,75.748,284.3711,9.0545e-05,1.067e-05,0.0,0 STARLINK-2180,1 47762U 21017AS  21312.62516486  .00001067  00000-0  90545-4 0  9995,2 47762  53.0556 128.7925 0001819  75.7480 284.3711 15.06380785 39085,6925.406999999997,95.593,548.5319999999998,546.013,0.0
47762,STARLINK-2180,PAYLOAD,2021-11-09 11:42:15,15.06385123,0.0001838,53.0556,124.9206,76.6613,283.4581,8.262e-05,9.49e-06,0.0,0 STARLINK-2180,1 47762U 21017AS  21313.48767942  .00000949  00000-0  82620-4 0  9998,2 47762  53.0556 124.9206 0001838  76.6613 283.4581 15.06385123 38562,6925.394,95.593,548.5319999999998,545.986,0.0
47762,STARLINK-2180,PAYLOAD,2021-11-09 13:17:47,15.06385361,0.0001841,53.0557,124.6228,76.6338,283.4856,8.2733e-05,9.5e-06,0.0,0 STARLINK-2180,1 47762U 21017AS  21313.55402662  .00000950  00000-0  82733-4 0  9998,2 47762  53.0557 124.6228 0001841  76.6338 283.4856 15.06385361 39225,6925.393,95.593,548.533,545.9830000000002,0.0
47762,STARLINK-2180,PAYLOAD,2021-11-09 18:04:25,15.06385481,0.0001844,53.0557,123.7293,76.78,283.3395,8.094600000000001e-05,9.24e-06,0.0,0 STARLINK-2180,1 47762U 21017AS  21313.75306871  .00000924  00000-0  80946-4 0  9990,2 47762  53.0557 123.7293 0001844  76.7800 283.3395 15.06385481 39258,6925.393,95.593,548.535,545.981,0.0
47762,STARLINK-2180,PAYLOAD,2021-11-10 17:57:30,15.06390727,0.000185,53.0558,119.2618,77.368,282.7515,8.8123e-05,1.031e-05,0.0,0 STARLINK-2180,1 47762U 21017AS  21314.74827423  .00001031  00000-0  88123-4 0  9996,2 47762  53.0558 119.2618 0001850  77.3680 282.7515 15.06390727 38750,6925.377,95.593,548.523,545.961,0.0
47762,STARLINK-2180,PAYLOAD,2021-11-11 14:39:31,15.06394163,0.0001792,53.056,115.3895,80.6277,279.4915,8.0304e-05,9.15e-06,0.0,0 STARLINK-2180,1 47762U 21017AS  21315.61078418  .00000915  00000-0  80304-4 0  9998,2 47762  53.0560 115.3895 0001792  80.6277 279.4915 15.06394163 39533,6925.366,95.593,548.472,545.99,0.0
47762,STARLINK-2180,PAYLOAD,2021-11-11 17:50:36,15.06395971,0.0001795,53.0561,114.794,79.8739,280.2452,9.6109e-05,1.15e-05,0.0,0 STARLINK-2180,1 47762U 21017AS  21315.74347679  .00001150  00000-0  96109-4 0  9992,2 47762  53.0561 114.7940 0001795  79.8739 280.2452 15.06395971 39550,6925.361,95.592,548.469,545.9830000000002,0.0
47762,STARLINK-2180,PAYLOAD,2021-11-12 11:21:32,15.06398812,0.0001788,53.0562,111.5178,80.015,280.1041,8.881899999999999e-05,1.042e-05,0.0,0 STARLINK-2180,1 47762U 21017AS  21316.47329137  .00001042  00000-0  88819-4 0  9991,2 47762  53.0562 111.5178 0001788  80.0150 280.1041 15.06398812 39013,6925.352,95.592,548.455,545.979,0.0
47762,STARLINK-2180,PAYLOAD,2021-11-12 17:43:41,15.06400522,0.0001785,53.0562,110.3265,80.5413,279.5777,9.847e-05,1.185e-05,0.0,0 STARLINK-2180,1 47762U 21017AS  21316.73867725  .00001185  00000-0  98470-4 0  9992,2 47762  53.0562 110.3265 0001785  80.5413 279.5777 15.06400522 39707,6925.347,95.592,548.448,545.976,0.0
47762,STARLINK-2180,PAYLOAD,2021-11-13 12:50:09,15.06403607,0.0001784,53.0563,106.7524,81.1524,278.9667,9.6723e-05,1.159e-05,0.0,0 STARLINK-2180,1 47762U 21017AS  21317.53483567  .00001159  00000-0  96723-4 0  9999,2 47762  53.0563 106.7524 0001784  81.1524 278.9667 15.06403607 39825,6925.3380000000025,95.592,548.438,545.967,0.0
47762,STARLINK-2180,PAYLOAD,2021-11-13 19:12:19,15.0640501,0.000179,53.0563,105.5611,80.6312,279.4879,0.00010315,1.255e-05,0.0,0 STARLINK-2180,1 47762U 21017AS  21317.80022110  .00001255  00000-0  10315-3 0  9991,2 47762  53.0563 105.5611 0001790  80.6312 279.4879 15.06405010 39219,6925.333000000001,95.592,548.438,545.9590000000002,0.0
47762,STARLINK-2180,PAYLOAD,2021-11-14 12:43:14,15.06409409,0.0001774,53.0564,102.2848,82.0801,278.0389,9.8543e-05,1.187e-05,0.0,0 STARLINK-2180,1 47762U 21017AS  21318.53002960  .00001187  00000-0  98543-4 0  9997,2 47762  53.0564 102.2848 0001774  82.0801 278.0389 15.06409409 39977,6925.32,95.592,548.413,545.956,0.0
47762,STARLINK-2180,PAYLOAD,2021-11-14 19:05:23,15.06411084,0.0001781999999999,53.0564,101.0935,82.0561,278.063,0.00011068,1.368e-05,0.0,0 STARLINK-2180,1 47762U 21017AS  21318.79541363  .00001368  00000-0  11068-3 0  9997,2 47762  53.0564 101.0935 0001782  82.0561 278.0630 15.06411084 40011,6925.315,95.591,548.414,545.945,0.0
47762,STARLINK-2180,PAYLOAD,2021-11-15 03:03:05,15.06412487,0.0001774,53.0565,99.6043,82.1011,278.0179,0.00010473,1.279e-05,0.0,0 STARLINK-2180,1 47762U 21017AS  21319.12714378  .00001279  00000-0  10473-3 0  9993,2 47762  53.0565  99.6043 0001774  82.1011 278.0179 15.06412487 39414,6925.31,95.591,548.404,545.947,0.0
47762,STARLINK-2180,PAYLOAD,2021-11-15 14:11:51,15.06416024,0.000176,53.0566,97.5194,82.5909,277.528,0.0001278,1.623e-05,0.0,0 STARLINK-2180,1 47762U 21017AS  21319.59156526  .00001623  00000-0  12780-3 0  9995,2 47762  53.0566  97.5194 0001760  82.5909 277.5280 15.06416024 40133,6925.299,95.591,548.383,545.946,0.0
47762,STARLINK-2180,PAYLOAD,2021-11-15 15:47:23,15.06417147,0.0001747,53.0566,97.2215,83.5599,276.5589,0.00013871,1.786e-05,0.0,0 STARLINK-2180,1 47762U 21017AS  21319.65791040  .00001786  00000-0  13871-3 0  9990,2 47762  53.0566  97.2215 0001747  83.5599 276.5589 15.06417147 40144,6925.295999999999,95.591,548.371,545.951,0.0
47762,STARLINK-2180,PAYLOAD,2021-11-16 04:31:43,15.06401654,0.0001695,53.0568,94.8387,84.9806,275.1377,-4.2755e-05,-9.18e-06,0.0,0 STARLINK-2180,1 47762U 21017AS  21320.18869550 -.00000918  00000-0 -42755-4 0  9994,2 47762  53.0568  94.8387 0001695  84.9806 275.1377 15.06401654 39578,6925.343000000003,95.592,548.382,546.035,0.0
47762,STARLINK-2180,PAYLOAD,2021-11-16 14:04:56,15.06406048,0.0001669,53.0569,93.0518,85.7944,274.3235,-7.790199999999999e-08,-2.83e-06,0.0,0 STARLINK-2180,1 47762U 21017AS  21320.58677028 -.00000283  00000-0 -77902-7 0  9995,2 47762  53.0569  93.0518 0001669  85.7944 274.3235 15.06406048 40285,6925.33,95.592,548.351,546.039,0.0
47762,STARLINK-2180,PAYLOAD,2021-11-16 15:40:29,15.06405841,0.000168,53.0569,92.7542,84.2706,275.8474,-8.698200000000001e-07,-2.95e-06,0.0,0 STARLINK-2180,1 47762U 21017AS  21320.65311697 -.00000295  00000-0 -86982-6 0  9990,2 47762  53.0569  92.7542 0001680  84.2706 275.8474 15.06405841 40293,6925.331,95.592,548.359,546.0319999999998,0.0
47762,STARLINK-2180,PAYLOAD,2021-11-17 09:11:24,15.064090599999998,0.0001681,53.0569,89.4785,83.5897,276.5283,1.1486e-05,-1.1e-06,0.0,0 STARLINK-2180,1 47762U 21017AS  21321.38292518 -.00000110  00000-0  11486-4 0  9991,2 47762  53.0569  89.4785 0001681  83.5897 276.5283 15.06409060 40405,6925.321,95.592,548.35,546.0219999999998,0.0
